[{"OBJECT_NAME":"STARLINK-31902","OBJECT_ID":"2024-084N","EPOCH":"2026-03-09T23:22:09.725952","MEAN_MOTION":15.27577381,"ECCENTRICITY":0.00011725,"INCLINATION":43.0054,"RA_OF_ASC_NODE":40.4457,"ARG_OF_PERICENTER":254.2353,"MEAN_ANOMALY":105.8369,"EPHEMERIS_TYPE":0,"CLASSIFICATION_TYPE":"U","NORAD_CAT_ID":59666,"ELEMENT_SET_NO":999,"REV_AT_EPOCH":10441,"BSTAR":-8.5764285e-5,"MEAN_MOTION_DOT":-2.621e-5,"MEAN_MOTION_DDOT":0},{"OBJECT_NAME":"FLOCK 4G-12","OBJECT_ID":"2025-009S","EPOCH":"2026-03-09T17:16:21.445824","MEAN_MOTION":15.27059194,"ECCENTRICITY":0.00028933,"INCLINATION":97.4059,"RA_OF_ASC_NODE":151.1894,"ARG_OF_PERICENTER":310.1775,"MEAN_ANOMALY":49.9211,"EPHEMERIS_TYPE":0,"CLASSIFICATION_TYPE":"U","NORAD_CAT_ID":62625,"ELEMENT_SET_NO":999,"REV_AT_EPOCH":6371,"BSTAR":0.00043519262,"MEAN_MOTION_DOT":0.00011487,"MEAN_MOTION_DDOT":0}]
